[{"OBJECT_NAME":"STARLINK-11232 [DTC]","OBJECT_ID":"2024-141D","EPOCH":"2026-03-09T06:56:26.845440","MEAN_MOTION":15.69730151,"ECCENTRICITY":0.000132,"INCLINATION":53.1592,"RA_OF_ASC_NODE":87.9692,"ARG_OF_PERICENTER":100.2843,"MEAN_ANOMALY":259.8324,"EPHEMERIS_TYPE":0,"CLASSIFICATION_TYPE":"U","NORAD_CAT_ID":60401,"ELEMENT_SET_NO":999,"REV_AT_EPOCH":9168,"BSTAR":1.2142619e-5,"MEAN_MOTION_DOT":8.83e-6,"MEAN_MOTION_DDOT":0},{"OBJECT_NAME":"FLOCK 4Q-17","OBJECT_ID":"2023-174AD","EPOCH":"2026-03-09T17:33:32.514048","MEAN_MOTION":15.67180586,"ECCENTRICITY":0.0003312,"INCLINATION":97.3815,"RA_OF_ASC_NODE":160.3254,"ARG_OF_PERICENTER":203.6939,"MEAN_ANOMALY":156.417,"EPHEMERIS_TYPE":0,"CLASSIFICATION_TYPE":"U","NORAD_CAT_ID":58283,"ELEMENT_SET_NO":999,"REV_AT_EPOCH":13057,"BSTAR":0.0017680138,"MEAN_MOTION_DOT":0.0019313,"MEAN_MOTION_DDOT":0}]
